CAS-2T & KS-1Q          
1 41847U 16066G   20170.73719375  .00000066  00000-0  21018-4 0  9993
2 41847  98.6536 221.2671 0364853 224.9844 132.1253 14.38071307189601
NAYIF-1 (EO-88)         
1 42017U 17008BX  20170.86015501  .00000970  00000-0  39935-4 0  9995
2 42017  97.3596 238.4019 0005136 331.5374  28.5583 15.26505259185761
MAX VALIER SAT          
1 42778U 17036P   20170.78811788  .00000598  00000-0  28611-4 0  9997
2 42778  97.3046 224.3872 0012805  25.8765 334.3110 15.22625462165930
RADFXSAT (FOX-1B)       
1 43017U 17073E   20170.81056820  .00000535  00000-0  46483-4 0  9995
2 43017  97.7233  82.9936 0258190  46.1787 316.0457 14.78940141139360
FOX-1D (AO-92)          
1 43137U 18004AC  20170.73155440  .00000672  00000-0  30549-4 0  9990
2 43137  97.4455 241.8838 0010541  57.6126 302.6129 15.24128677135236
DIWATA-2B               
1 43678U 18084H   20170.88297579 -.00000132  00000-0 -74488-5 0  9998
2 43678  97.8837 289.2854 0010172 164.9027 195.2507 14.91631661 89239
ES'HAIL 2               
1 43700U 18090A   20170.85238762  .00000157  00000-0  00000-0 0  9996
2 43700   0.0130 341.3206 0000993 122.3413 136.5467  1.00269068  5724
FOX-1CLIFF (AO-95)      
1 43770U 18099N   20170.84719006 -.00000219  00000-0 -14762-4 0  9991
2 43770  97.7055 242.2036 0014384 186.6886 173.4145 14.94991475 84121
ITASAT 1                
1 43786U 18099AE  20170.70996547 -.00000253  00000-0 -17664-4 0  9992
2 43786  97.7072 242.4892 0015137 180.9635 179.1560 14.95331457 84128
JY1SAT (JO-97)          
1 43803U 18099AX  20170.65744594 -.00000003  00000-0  49304-5 0  9998
2 43803  97.7030 242.2562 0015177 181.7065 178.4107 14.95505700 84116
PSAT2 (NO-104)          
1 44354U 19036R   20170.71718899  .00005035  00000-0  69949-4 0  9993
2 44354  28.5334  12.2998 0364193 324.5604  33.1287 15.03476913 54011
BRICSAT2 (NO-103)       
1 44355U 19036S   20170.72085800  .00010186  00000-0  13988-3 0  9998
2 44355  28.5327   3.5376 0343109 338.8246  19.8445 15.08818936 54108
JAISAT-1                
1 44419U 19038F   20170.87822131  .00000497  00000-0  31897-4 0  9997
2 44419  97.5386 132.4568 0022940 123.2244 237.1190 15.12783645 52817
DUCHIFAT-3              
1 44854U 19089C   20170.82664780  .00000250  00000-0  26660-4 0  9994
2 44854  36.9668  90.2357 0007161  68.5046 291.6473 14.99070103 28506
RS-44 & BREEZE-KM R/B   
1 44909U 19096E   20170.92191756  .00000022  00000-0  48008-4 0  9999
2 44909  82.5212 354.3382 0216643 222.8738 135.5297 12.79707972 22377
ORBITAL FACTORY 2 (OF-2)
1 45113U 19071C   20170.78761832  .00001386  00000-0  53874-4 0  9993
2 45113  51.6452 357.1039 0013580  64.0892 296.1488 15.33360636 21336
HUSKYSAT-1              
1 45119U 19071J   20170.83099233  .00000859  00000-0  37567-4 0  9999
2 45119  51.6449 356.6442 0012823  60.8619 299.3645 15.33576503 21332
